STARLINK-3047           
1 49174U 21082AW  21276.91668981  .00054863  00000-0  45896-3 0  9995
2 49174  70.0010  71.1660 0003850 278.2549   3.8164 15.69714970  3463
STARLINK-3087           
1 49175U 21082AX  21276.91668981 -.00459288  00000-0 -40291-2 0  9991
2 49175  70.0004  71.1566 0003625 278.5415   9.8194 15.69930264  3462
STARLINK-3069           
1 49176U 21082AY  21276.91668981 -.00054119  00000-0 -45380-3 0  9991
2 49176  69.9997  71.1480 0003631 280.7932  16.1223 15.69784349  3467
STARLINK-3103           
1 49177U 21082AZ  21276.91668981 -.00597535  00000-0 -53149-2 0  9997
2 49177  70.0009  71.1541 0003786 278.9282  11.5893 15.69989205  3461
STARLINK-3086           
1 49178U 21082BA  21276.41667824  .00051395  00000-0  42964-3 0  9999
2 49178  70.0024  72.5582 0003326 266.4480  83.5931 15.69750943  4290
STARLINK-3043           
1 49179U 21082BB  21276.91668981 -.00025600  00000-0 -21278-3 0  9997
2 49179  70.0005  71.1544 0003560 277.5416  14.9538 15.69809097  3469
STARLINK-3050           
1 49180U 21082BC  21276.91668981 -.00054710  00000-0 -45911-3 0  9993
2 49180  70.0020  71.1471 0003651 277.1628  21.8692 15.69768447  3460
STARLINK-3059           
1 49181U 21082BD  21276.91668981  .00048974  00000-0  41002-3 0  9994
2 49181  70.0010  71.1440 0003411 281.3007  19.8448 15.69726236  3464
ONEWEB-0292             
1 49186U 21083A   21276.91668981 -.01033854  00000-0 -54673-1 0  9990
2 49186  87.3160 321.4618 0018129 234.3873 351.2398 15.18315138  3641
ONEWEB-0303             
1 49187U 21083B   21276.91668981 -.01085841  00000-0 -60698-1 0  9998
2 49187  87.4336 321.5806 0017043 234.3503  72.1285 15.16561062  3610
ONEWEB-0306             
1 49188U 21083C   21276.91668981 -.01086101  00000-0 -56838-1 0  9990
2 49188  87.4380 321.5614 0019521 232.1153 194.0382 15.18791717  4209
ONEWEB-0307             
1 49189U 21083D   21276.91668981 -.01023824  00000-0 -56308-1 0  9996
2 49189  87.3136 321.4672 0015519 229.2173 282.5127 15.16980098  4225
ONEWEB-0320             
1 49190U 21083E   21276.91668981 -.01093639  00000-0 -62297-1 0  9993
2 49190  87.4315 321.5790 0016494 233.0108  45.1299 15.15936502  3618
ONEWEB-0321             
1 49191U 21083F   21276.91668981 -.01033212  00000-0 -53225-1 0  9996
2 49191  87.3187 321.4578 0019145 232.8589  28.7282 15.19193889  3643
ONEWEB-0322             
1 49192U 21083G   21276.91668981 -.01043630  00000-0 -55245-1 0  9996
2 49192  87.3167 321.4606 0017277 236.1030 342.3309 15.18326470  3622
ONEWEB-0324             
1 49193U 21083H   21276.91668981 -.01081499  00000-0 -60188-1 0  9994
2 49193  87.4341 321.5677 0018864 236.6230 113.2843 15.16663742  3696
ONEWEB-0325             
1 49194U 21083J   21276.91668981 -.01095022  00000-0 -62037-1 0  9997
2 49194  87.4296 321.5720 0016807 233.0173  58.2952 15.16124565  4209
ONEWEB-0326             
1 49195U 21083K   21276.91668981 -.01089841  00000-0 -57238-1 0  9997
2 49195  87.4295 321.5587 0019805 228.8791 200.3094 15.18672496  3646
ONEWEB-0327             
1 49196U 21083L   21276.91668981 -.01045558  00000-0 -59084-1 0  9996
2 49196  87.4421 321.5668 0019973 233.2682 138.0888 15.16002159  3675
ONEWEB-0328             
1 49197U 21083M   21276.91668981 -.01045328  00000-0 -55620-1 0  9994
2 49197  87.3157 321.4612 0016376 235.1074 325.5886 15.18172202  4221
ONEWEB-0331             
1 49198U 21083N   21276.91668981 -.01062110  00000-0 -55955-1 0  9994
2 49198  87.4196 321.5650 0019641 237.1811 135.8753 15.18491409  3641
ONEWEB-0333             
1 49199U 21083P   21276.91668981 -.01034912  00000-0 -55858-1 0  9996
2 49199  87.3172 321.4700 0015774 234.8967 314.0626 15.17659956  4226
ONEWEB-0334             
1 49200U 21083Q   21276.91668981 -.01042994  00000-0 -52794-1 0  9994
2 49200  87.3172 321.4453 0019390 224.6041  80.1451 15.19817439  3626
ONEWEB-0335             
1 49201U 21083R   21276.91668981 -.01030731  00000-0 -59144-1 0  9997
2 49201  87.3125 321.4794 0018761 225.5176 203.4299 15.15451029  4214
ONEWEB-0336             
1 49202U 21083S   21276.91668981 -.01030034  00000-0 -58002-1 0  9996
2 49202  87.3126 321.4738 0016434 225.0570 246.7587 15.16156879  4218
ONEWEB-0337             
1 49203U 21083T   21276.91668981 -.01012950  00000-0 -58552-1 0  9994
2 49203  87.3096 321.4768 0019284 226.2245 187.8532 15.15130427  3658
ONEWEB-0338             
1 49204U 21083U   21276.91668981 -.01049893  00000-0 -55190-1 0  9996
2 49204  87.3169 321.4572 0018719 233.1283   6.2852 15.18553780  4221
ONEWEB-0339             
1 49205U 21083V   21276.91668981 -.01039796  00000-0 -57246-1 0  9992
2 49205  87.3140 321.4664 0016351 227.9333 265.0463 15.16973337  3640
ONEWEB-0340             
1 49206U 21083W   21276.91668981 -.01097633  00000-0 -59632-1 0  9998
2 49206  87.4294 321.5704 0017180 236.2630  90.5022 15.17583583  3645
ONEWEB-0341             
1 49207U 21083X   21276.91668981 -.01095635  00000-0 -59959-1 0  9991
2 49207  87.4310 321.5675 0018364 237.0635 116.8340 15.17299395  3641
ONEWEB-0342             
1 49208U 21083Y   21276.91668981 -.01029878  00000-0 -51605-1 0  9998
2 49208  87.3207 321.4525 0019406 223.0494  95.0965 15.20126905  3646
ONEWEB-0343             
1 49209U 21083Z   21276.91668981 -.01044420  00000-0 -54594-1 0  9999
2 49209  87.4352 321.5768 0019776 232.1339 179.7976 15.18708383  3621
ONEWEB-0344             
1 49210U 21083AA  21276.91668981 -.01042886  00000-0 -59721-1 0  9992
2 49210  87.3090 321.4724 0018366 224.9800 213.8884 15.15565336  3644
ONEWEB-0345             
1 49211U 21083AB  21276.91668981 -.01035808  00000-0 -58734-1 0  9992
2 49211  87.3120 321.4749 0017620 224.3534 230.2055 15.15906064  3691
ONEWEB-0346             
1 49212U 21083AC  21276.91668981 -.01095781  00000-0 -60977-1 0  9991
2 49212  87.4326 321.5717 0017755 237.6637  87.2387 15.16732344  3649
ONEWEB-0348             
1 49213U 21083AD  21276.91668981 -.01032779  00000-0 -52393-1 0  9993
2 49213  87.3215 321.4592 0019523 226.2697  66.5379 15.19710074  3641
ONEWEB-0350             
1 49214U 21083AE  21276.91668981 -.01046068  00000-0 -57621-1 0  9999
2 49214  87.3143 321.4692 0015273 231.8508 284.8886 15.16994351  3641
ONEWEB-0351             
1 49215U 21083AF  21276.91668981 -.01037677  00000-0 -50659-1 0  9990
2 49215  87.3204 321.4445 0016792 216.0144 159.3666 15.21093457  3649
ONEWEB-0352             
1 49216U 21083AG  21276.91668981 -.00965114  00000-0 -53341-1 0  9997
2 49216  87.3140 321.4739 0015958 228.5677 270.1911 15.16632137  3617
ONEWEB-0354             
1 49217U 21083AH  21276.91668981 -.01021527  00000-0 -45117-1 0  9992
2 49217  87.3368 321.4499 0017318 217.6421 225.6867 15.24411148  3623
ONEWEB-0355             
1 49218U 21083AJ  21276.91668981 -.01036877  00000-0 -56258-1 0  9995
2 49218  87.3127 321.4603 0015290 234.1024 300.1110 15.17493117  3644
ONEWEB-0357             
1 49219U 21083AK  21276.91668981 -.01032474  00000-0 -52720-1 0  9995
2 49219  87.3183 321.4520 0018974 229.3775  53.5206 15.19498419  3643
SZ-12 MODULE            
1 49221U 21053C   21276.84816449  .00009602  00000-0  11816-3 0  9998
2 49221  41.5577 340.6115 0003919  31.4357 328.6717 15.60270244  2595
TIANZHOU-3              
1 49222U 21085A   21276.60418184  .00005898  00000-0  71027-4 0  9996
2 49222  41.4719 341.7500 0000691   1.5138 151.0730 15.61405462 24659
JILIN-01 GAOFEN 2D      
1 49256U 21086A   21277.10006475  .00000615  00000-0  42615-4 0  9999
2 49256  97.5401  22.8528 0010436 240.3479 283.0174 15.09216719  1034
SHIYAN 10 (SY-10)       
1 49258U 21087A   21276.89154396  .00003708 -80354-6  20109-3 0  9999
2 49258  51.0775  77.9592 7528877 226.1010  44.3801  2.01068849   165
LANDSAT 9               
1 49260U 21088A   21276.74846799 -.00031485  00000-0 -59888-2 0  9995
2 49260  98.2178 345.3612 0013232 280.4253  79.5731 14.64242781   873
CUTE                    
1 49263U 21088D   21276.93567000  .00002239  00000-0  17691-3 0  9994
2 49263  97.6234 344.8527 0017574 227.2705 132.7067 15.01573831   919
